{"fetched_at":"2026-04-16T17:13:58Z","count":4884,"tles":[{"name":"TRANSPORTER-16 OBJECT CL","line1":"1 68498U 26067CL  26103.92746049  .00001270  00000+0  13332-3 0  9993","line2":"2 68498  97.7494  63.1790 0000851 295.8274  64.2857 14.91215242  2144","category":"Other"}]}